GLOBALSTAR M084         
1 38040U 11080A   25347.98745766 -.00000088  00000+0  88569-4 0  9994
2 38040  51.9994 221.0985 0001273  71.5927  34.6630 12.62266595645376
GLOBALSTAR M080         
1 38041U 11080B   25347.95815406 -.00000088  00000+0  90340-4 0  9991
2 38041  52.0042 222.8415 0000668  98.4686   4.5346 12.62264818645496
GLOBALSTAR M082         
1 38042U 11080C   25347.79546683 -.00000079  00000+0  13633-3 0  9991
2 38042  52.0045 178.8173 0000859 102.9000 270.0994 12.62266211646189
GLOBALSTAR M092         
1 38043U 11080D   25347.56668929 -.00000089  00000+0  83792-4 0  9990
2 38043  52.0089 269.9008 0000758  60.9051 111.5764 12.62268351644600
GLOBALSTAR M090         
1 38044U 11080E   25347.93091028 -.00000078  00000+0  14594-3 0  9993
2 38044  52.0094 172.3014 0000936  87.4036  60.2895 12.62265478646318
GLOBALSTAR M086         
1 38045U 11080F   25347.70289036 -.00000073  00000+0  17294-3 0  9992
2 38045  51.9866 173.2271 0001398  39.2046  41.5257 12.62281107646230
GLOBALSTAR M097         
1 39072U 13005A   25347.95081363 -.00000105  00000+0 -50340-5 0  9990
2 39072  52.0049  87.2100 0000575 110.2105 249.8823 12.62267840593515
GLOBALSTAR M093         
1 39073U 13005B   25347.68717373 -.00000101  00000+0  15813-4 0  9998
2 39073  52.0110  81.2899 0000325 116.6483 243.4417 12.62271063593438
